[{"OBJECT_NAME":"STARLINK-5502","OBJECT_ID":"2023-021S","EPOCH":"2026-03-09T17:09:16.361280","MEAN_MOTION":14.9833189,"ECCENTRICITY":0.00030721,"INCLINATION":70.0013,"RA_OF_ASC_NODE":184.4553,"ARG_OF_PERICENTER":267.3405,"MEAN_ANOMALY":92.7402,"EPHEMERIS_TYPE":0,"CLASSIFICATION_TYPE":"U","NORAD_CAT_ID":55644,"ELEMENT_SET_NO":999,"REV_AT_EPOCH":16879,"BSTAR":-1.158252e-5,"MEAN_MOTION_DOT":-2.31e-6,"MEAN_MOTION_DDOT":0},{"OBJECT_NAME":"FENGYUN 1C DEB","OBJECT_ID":"1999-025BLM","EPOCH":"2026-03-08T05:01:42.980736","MEAN_MOTION":14.80168873,"ECCENTRICITY":0.01365523,"INCLINATION":98.865,"RA_OF_ASC_NODE":239.8189,"ARG_OF_PERICENTER":197.7839,"MEAN_ANOMALY":161.8566,"EPHEMERIS_TYPE":0,"CLASSIFICATION_TYPE":"U","NORAD_CAT_ID":31231,"ELEMENT_SET_NO":999,"REV_AT_EPOCH":64283,"BSTAR":0.0066268112,"MEAN_MOTION_DOT":0.00059401,"MEAN_MOTION_DDOT":0}]
